TEVEL2-5                
1 63214U 25052E   26068.96660006  .00021339  00000+0  71765-3 0  9991
2 63214  97.4013 325.3677 0004700  95.3936 264.7842 15.30817434 54919
STARLINK-34071          
1 63910U 25095W   26068.61331488  .00034405  00000+0  12519-2 0  9991
2 63910  43.0008 176.8681 0001289 259.3594 100.7112 15.27634340 47761
