[{"OBJECT_NAME":"TEVEL2-5","OBJECT_ID":"2025-052E","EPOCH":"2026-03-09T23:11:54.246048","MEAN_MOTION":15.30817434,"ECCENTRICITY":0.00047002,"INCLINATION":97.4013,"RA_OF_ASC_NODE":325.3677,"ARG_OF_PERICENTER":95.3936,"MEAN_ANOMALY":264.7842,"EPHEMERIS_TYPE":0,"CLASSIFICATION_TYPE":"U","NORAD_CAT_ID":63214,"ELEMENT_SET_NO":999,"REV_AT_EPOCH":5491,"BSTAR":0.00071764727,"MEAN_MOTION_DOT":0.00021339,"MEAN_MOTION_DDOT":0},{"OBJECT_NAME":"STARLINK-34071","OBJECT_ID":"2025-095W","EPOCH":"2026-03-09T14:43:10.405632","MEAN_MOTION":15.2763434,"ECCENTRICITY":0.00012893,"INCLINATION":43.0008,"RA_OF_ASC_NODE":176.8681,"ARG_OF_PERICENTER":259.3594,"MEAN_ANOMALY":100.7112,"EPHEMERIS_TYPE":0,"CLASSIFICATION_TYPE":"U","NORAD_CAT_ID":63910,"ELEMENT_SET_NO":999,"REV_AT_EPOCH":4776,"BSTAR":0.0012518852,"MEAN_MOTION_DOT":0.00034405,"MEAN_MOTION_DDOT":0}]
